GLOBALSTAR M067         
1 32263U 07048A   24147.13269807 -.00000060  00000+0  27577-3 0  9996
2 32263  51.9731  88.4594 0000456 259.6973 113.9714 12.40645802761684
GLOBALSTAR M070         
1 32264U 07048B   24146.53147450 -.00000044  00000+0  33485-3 0  9996
2 32264  51.9742 229.4360 0000183 113.5762 260.1715 12.62293237764714
GLOBALSTAR M066         
1 32265U 07048C   24147.12566053 -.00000087  00000+0  90817-4 0  9997
2 32265  51.9677  89.5996 0000437  36.0241 337.0871 12.62262575767996
GLOBALSTAR M068         
1 32266U 07048D   24146.87380368 -.00000038  00000+0  36500-3 0  9996
2 32266  51.9906  42.8826 0001417  33.3228  45.7093 12.62790115768918
GLOBALSTAR M079         
1 37188U 10054A   24146.56068196 -.00000057  00000+0  26074-3 0  9999
2 37188  52.0036 239.7833 0000718 146.2817 227.1611 12.62270432627504
GLOBALSTAR M074         
1 37189U 10054B   24147.55700977 -.00000059  00000+0  25229-3 0  9993
2 37189  52.0011 236.1338 0000441 136.3985 325.9389 12.62269138628307
GLOBALSTAR M076         
1 37190U 10054C   24147.58411937 -.00000053  00000+0  28225-3 0  9996
2 37190  52.0023 236.1845 0000629 180.4899 286.9436 12.62261593628314
GLOBALSTAR M077         
1 37191U 10054D   24147.58329346 -.00000081  00000+0  12592-3 0  9990
2 37191  52.0054 192.9343 0000127 170.5107 351.7410 12.62273706629061
